{
    "links": {
        "self": "http://www.neowsapp.com/rest/v1/neo/3581554?api_key=iIulBulltgU6a56xZRHN4H3l9WmuAYTsLGpBGhQ2"
    },
    "id": "3581554",
    "neo_reference_id": "3581554",
    "name": "(2011 TH5)",
    "designation": "2011 TH5",
    "nasa_jpl_url": "http://ssd.jpl.nasa.gov/sbdb.cgi?sstr=3581554",
    "absolute_magnitude_h": 26.5,
    "estimated_diameter": {
        "kilometers": {
            "estimated_diameter_min": 0.0133215567,
            "estimated_diameter_max": 0.0297879063
        },
        "meters": {
            "estimated_diameter_min": 13.3215566698,
            "estimated_diameter_max": 29.7879062798
        },
        "miles": {
            "estimated_diameter_min": 0.008277629,
            "estimated_diameter_max": 0.0185093411
        },
        "feet": {
            "estimated_diameter_min": 43.7058959846,
            "estimated_diameter_max": 97.7293544391
        }
    },
    "is_potentially_hazardous_asteroid": false,
    "close_approach_data": [
        {
            "close_approach_date": "2011-09-27",
            "close_approach_date_full": "2011-Sep-27 16:22",
            "epoch_date_close_approach": 1317140520000,
            "relative_velocity": {
                "kilometers_per_second": "5.2444051107",
                "kilometers_per_hour": "18879.8583984417",
                "miles_per_hour": "11731.2097920762"
            },
            "miss_distance": {
                "astronomical": "0.0555195519",
                "lunar": "21.5971056891",
                "kilometers": "8305606.707594453",
                "miles": "5160864.6956233314"
            },
            "orbiting_body": "Earth"
        }
    ],
    "orbital_data": {
        "orbit_id": "4",
        "orbit_determination_date": "2017-04-06 08:52:31",
        "first_observation_date": "2011-10-03",
        "last_observation_date": "2011-10-05",
        "data_arc_in_days": 2,
        "observations_used": 14,
        "orbit_uncertainty": "9",
        "minimum_orbit_intersection": ".0539861",
        "jupiter_tisserand_invariant": "4.508",
        "epoch_osculation": "2455838.5",
        "eccentricity": ".2930562209647433",
        "semi_major_axis": "1.490049478364675",
        "inclination": "6.944524367109559",
        "ascending_node_longitude": "189.7506372989666",
        "orbital_period": "664.3538582547803",
        "perihelion_distance": "1.053381209184636",
        "perihelion_argument": "167.2329424856172",
        "aphelion_distance": "1.926717747544713",
        "perihelion_time": "2455826.025686563384",
        "mean_anomaly": "6.759579674871929",
        "mean_motion": ".5418798965745445",
        "equinox": "J2000",
        "orbit_class": {
            "orbit_class_type": "AMO",
            "orbit_class_description": "Near-Earth asteroid orbits similar to that of 1221 Amor",
            "orbit_class_range": "1.017 AU < q (perihelion) < 1.3 AU"
        }
    },
    "is_sentry_object": false
}